{"type":"FeatureCollection","features":[{"type":"Feature","properties":{},"geometry":{"type":"MultiPolygon","coordinates":[[[[-114.709,31.757],[-114.688,31.724],[-114.694,31.706],[-114.727,31.701],[-114.789,31.747],[-114.785,31.79],[-114.771,31.794],[-114.709,31.757]]],[[[-118.557,33.033],[-118.507,32.96],[-118.383,32.849],[-118.35,32.828],[-118.409,32.819],[-118.473,32.839],[-118.529,32.936],[-118.59,33.011],[-118.557,33.033]]],[[[-119.479,33.275],[-119.442,33.232],[-119.438,33.217],[-119.483,33.215],[-119.544,33.225],[-119.575,33.278],[-119.525,33.282],[-119.479,33.275]]],[[[-118.492,33.413],[-118.507,33.427],[-118.559,33.432],[-118.563,33.437],[-118.569,33.464],[-118.555,33.477],[-118.392,33.415],[-118.348,33.386],[-118.297,33.312],[-118.37,33.321],[-118.446,33.317],[-118.469,33.357],[-118.492,33.413]]],[[[-119.994,33.985],[-119.984,33.973],[-120.044,33.919],[-120.114,33.905],[-120.167,33.918],[-120.252,34.014],[-120.072,34.027],[-119.994,33.985]]],[[[-119.81,33.968],[-119.885,33.995],[-119.892,34.032],[-119.918,34.068],[-119.882,34.08],[-119.679,34.028],[-119.569,34.053],[-119.549,34.028],[-119.562,34.007],[-119.81,33.968]]],[[[-120.307,34.025],[-120.36,34.022],[-120.442,34.033],[-120.413,34.056],[-120.368,34.073],[-120.307,34.025]]],[[[-113.11,30.793],[-113.087,30.938],[-113.105,31.027],[-113.119,31.048],[-113.108,31.077],[-113.073,31.061],[-113.043,31.087],[-113.047,31.179],[-113.084,31.207],[-113.186,31.236],[-113.231,31.256],[-113.481,31.294],[-113.623,31.346],[-113.633,31.468],[-113.7,31.523],[-113.759,31.558],[-113.948,31.629],[-113.977,31.593],[-114.003,31.525],[-114.081,31.51],[-114.149,31.507],[-114.264,31.554],[-114.549,31.734],[-114.609,31.762],[-114.698,31.777],[-114.741,31.806],[-114.934,31.901],[-114.895,31.851],[-114.84,31.799],[-114.79,31.647],[-114.848,31.538],[-114.882,31.156],[-114.845,31.08],[-114.761,30.959],[-114.703,30.765],[-114.685,30.621],[-114.633,30.507],[-114.65,30.238],[-114.63,30.156],[-114.55,30.022],[-114.524,30.0],[-115.802,30.0],[-115.79,30.084],[-115.816,30.304],[-115.858,30.36],[-115.996,30.414],[-116.029,30.564],[-116.035,30.705],[-116.062,30.804],[-116.296,30.971],[-116.31,31.051],[-116.31,31.127],[-116.333,31.203],[-116.458,31.361],[-116.61,31.499],[-116.662,31.565],[-116.668,31.699],[-116.722,31.735],[-116.702,31.744],[-116.652,31.74],[-116.624,31.758],[-116.621,31.851],[-116.848,31.997],[-116.914,32.199],[-117.035,32.305],[-117.063,32.344],[-117.13,32.54],[-117.137,32.649],[-117.184,32.688],[-117.243,32.664],[-117.271,32.806],[-117.256,32.873],[-117.263,32.939],[-117.319,33.1],[-117.467,33.296],[-117.789,33.538],[-117.952,33.62],[-118.081,33.722],[-118.162,33.751],[-118.264,33.759],[-118.294,33.712],[-118.41,33.744],[-118.393,33.858],[-118.506,34.017],[-118.599,34.035],[-118.832,34.024],[-119.144,34.112],[-119.236,34.164],[-119.268,34.257],[-119.414,34.339],[-119.606,34.418],[-119.713,34.4],[-119.853,34.412],[-120.053,34.469],[-120.17,34.476],[-120.396,34.46],[-120.481,34.472],[-120.56,34.544],[-120.645,34.58],[-120.627,34.669],[-120.638,34.749],[-120.625,34.812],[-120.663,34.949],[-120.634,35.076],[-120.659,35.122],[-120.707,35.158],[-120.857,35.21],[-120.885,35.275],[-120.86,35.365],[-120.9,35.425],[-121.023,35.481],[-121.138,35.607],[-121.284,35.676],[-121.344,35.792],[-121.434,35.864],[-121.465,35.927],[-121.664,36.154],[-121.877,36.331],[-121.91,36.433],[-121.919,36.572],[-121.835,36.657],[-121.79,36.732],[-121.795,36.801],[-121.807,36.851],[-121.881,36.939],[-122.164,36.991],[-122.395,37.208],[-122.408,37.373],[-122.499,37.543],[-122.5,37.653],[-122.514,37.772],[-122.446,37.798],[-122.384,37.789],[-122.39,37.741],[-122.37,37.656],[-122.298,37.592],[-122.229,37.564],[-122.166,37.502],[-122.119,37.483],[-122.071,37.478],[-122.097,37.518],[-122.124,37.544],[-122.158,37.626],[-122.222,37.732],[-122.296,37.79],[-122.333,37.897],[-122.365,37.921],[-122.385,37.961],[-122.314,38.007],[-122.217,38.041],[-122.087,38.05],[-121.717,38.034],[-121.638,38.061],[-121.573,38.052],[-121.525,38.056],[-121.626,38.084],[-121.682,38.075],[-121.749,38.08],[-121.881,38.075],[-121.934,38.087],[-121.993,38.12],[-122.031,38.124],[-122.154,38.066],[-122.208,38.073],[-122.337,38.136],[-122.393,38.145],[-122.484,38.109],[-122.495,37.954],[-122.467,37.838],[-122.521,37.826],[-122.584,37.874],[-122.681,37.902],[-122.76,37.946],[-122.873,38.026],[-122.932,38.055],[-122.999,37.989],[-123.001,38.019],[-122.968,38.097],[-122.978,38.227],[-122.877,38.123],[-122.908,38.197],[-122.987,38.277],[-123.046,38.305],[-123.121,38.449],[-123.29,38.536],[-123.425,38.676],[-123.701,38.907],[-123.72,39.111],[-123.82,39.368],[-123.778,39.515],[-123.783,39.619],[-123.833,39.775],[-123.884,39.861],[-124.108,40.095],[-124.324,40.252],[-124.357,40.371],[-124.372,40.491],[-124.325,40.598],[-124.284,40.711],[-124.254,40.74],[-124.242,40.728],[-124.251,40.704],[-124.22,40.696],[-124.208,40.746],[-124.19,40.772],[-124.223,40.775],[-124.219,40.791],[-124.2,40.822],[-124.133,40.97],[-124.14,41.156],[-124.069,41.384],[-124.072,41.46],[-124.118,41.622],[-124.163,41.719],[-124.245,41.788],[-124.209,41.889],[-124.212,41.985],[-124.228,42.0],[-112.0,42.0],[-112.0,30.0],[-112.741,30.0],[-112.759,30.126],[-112.825,30.3],[-112.952,30.51],[-113.058,30.651],[-113.11,30.793]]]]}}]}